#aV2021  5 18  0  0  0.00000000     288 DD+AD WGS84 FIT  NGA
## 2158 172800.00000000   300.00000000 59352 0.0000000000000
+   31     1  2  3  4  5  6  7  8  9 10 12 13 14 15 16 17 18
+         19 20 21 22 23 24 25 26 27 28 29 30 31 32  0  0  0
+          0  0  0  0  0  0  0  0  0  0  0  0  0  0  0  0  0
+          0  0  0  0  0  0  0  0  0  0  0  0  0  0  0  0  0
+          0  0  0  0  0  0  0  0  0  0  0  0  0  0  0  0  0
++         2  2  2  2  2  2  2  2  2  2  2  2  2  2  2  2  2
++         2  2  2  2  2  2  2  2  2  2  2  2  2  2  0  0  0
++         0  0  0  0  0  0  0  0  0  0  0  0  0  0  0  0  0
++         0  0  0  0  0  0  0  0  0  0  0  0  0  0  0  0  0
++         0  0  0  0  0  0  0  0  0  0  0  0  0  0  0  0  0
%c cc cc ccc ccc cccc cccc cccc cccc ccccc ccccc ccccc ccccc
%c cc cc ccc ccc cccc cccc cccc cccc ccccc ccccc ccccc ccccc
%f  0.0000000  0.000000000  0.00000000000  0.000000000000000
%f  0.0000000  0.000000000  0.00000000000  0.000000000000000
%i    0    0    0    0      0      0      0      0         0
%i    0    0    0    0      0      0      0      0         0
/*      NGA, ST. LOUIS,MO.                                  
/*   EPHEMERIS COMPUTED FROM 2 DAYS OF DATA                 
/*   EPOCHA v6 SMOOTHER                                     
/*   G2139 IERS2010 SATIGS SATAPC                           
*  2021  5 18  4 10  0.00000000
P  1 -13629.119242  18957.160147  12064.655733    685.917769                    
V  1   2295.519214 -15788.736338  27164.397349     -0.110666                    
P  2  14197.767457   4640.518081 -21309.774980   -605.121758                    
V  2  -5636.168719  28062.250383   2336.846546     -0.031385                    
P  3 -20948.804814  12768.790660 -10112.124340   -166.964554                    
V  3 -12915.818279   1027.467849  28398.146569     -0.103938                    
P  4 -11423.454813  10073.812330 -21752.122143   -196.694771                    
V  4 -18838.121241 -20227.497847    468.766338     -0.014786                    
P  5  25883.237073  -4361.135772  -4832.786964    -42.258880                    
V  5  -4860.411915   4331.929467 -30742.364790     -0.011137                    
P  6   8210.931341  16992.468385 -18606.671282     16.874563                    
V  6  -7331.597559  22578.490917  17387.109068      0.038221                    
P  7  -6283.719401  25513.963390   1097.592147    153.916646                    
V  7  -3660.736235     17.734314 -31844.605868      0.105974                    
P  8 -18090.493746   1199.609479  19502.608386    -21.624095                    
V  8 -17006.756662 -17901.845747 -14367.808750     -0.014241                    
P  9   -707.777250  18350.590103 -19240.431618   -346.129605                    
V  9 -18464.402936 -15918.506137 -14569.579769     -0.022685                    
P 10  -7692.925581 -13393.789490  21749.857976   -124.156873                    
V 10  26278.602562  -7339.628601   4540.576058     -0.076309                    
P 12  22903.427548 -10353.367548  -8614.154047    -42.579072                    
V 12  10849.430815    235.018412  29569.952398     -0.051636                    
P 13  19859.561610   8512.175023  15404.302675    133.409182                    
V 13  10556.949804  16762.844671 -22546.878688      0.047400                    
P 14   6553.293091  14085.663222  21535.943110     84.286826                    
V 14 -26662.032220   6230.133603   4006.146531     -0.053654                    
P 15  18153.231888  -3561.752636  18814.359389   -148.645033                    
V 15  18304.198978  16605.938520 -13892.901329      0.026224                    
P 16 -25382.353993  -1608.947592  -8676.434071   -326.923812                    
V 16  10068.769582  -3562.272431 -29196.053673     -0.060383                    
P 17  11898.511149  22249.910412   8713.768609    444.137788                    
V 17  -8331.421867  -6580.668676  29636.529885      0.060266                    
P 18   4487.142448 -25789.097275   4277.187540    350.103013                    
V 18   4018.706466  -4501.293852 -31344.737664     -0.010198                    
P 19  17180.948596  20328.572317   -917.239350      1.468792                    
V 19  -1114.350551   1940.732237  32082.833656      0.049928                    
P 20  23132.899126 -12324.441249   2979.625041    522.081102                    
V 20   5039.474631   1947.163754 -31135.760550     -0.003769                    
P 21 -15565.180562  11631.946017  18598.428980    118.894379                    
V 21   2583.953106 -22285.519652  17231.380990      0.026537                    
P 22 -24819.144440   9154.032332    226.856913   -611.554396                    
V 22  -1279.306117  -3590.115605  31290.696433      0.095072                    
P 23   5202.280095 -16243.504174  20327.259213    105.755694                    
V 23  25088.641473  -6347.258179 -11527.647822     -0.032787                    
P 24  14810.689730 -14808.926556  15854.621153     84.226481                    
V 24  -1319.605072  20953.386121  20880.082799      0.224911                    
P 25  12277.326058 -15935.152337 -17467.804988    139.233524                    
V 25  21484.088728  -3940.545388  19248.258189      0.070648                    
P 26 -20113.847780  -6188.401161 -16419.288175     86.740987                    
V 26  19128.537175  -8139.265315 -20169.695312      0.049492                    
P 27 -21525.203344  -9827.748577  12252.314696   -131.938120                    
V 27  -9849.755918 -12318.405437 -26439.309838     -0.065021                    
P 28  12364.540146  12154.378811  20619.877541    569.574130                    
V 28 -24479.306784   5044.302804  12216.964146     -0.060879                    
P 29   1988.806107 -17751.056605 -19689.737314   -348.913644                    
V 29  16953.047738  18192.977552 -14771.583133     -0.064539                    
P 30   2981.621147  22995.770577  12797.962415   -427.484047                    
V 30  -7523.498913  14771.350411 -25139.509479     -0.049369                    
P 31 -10440.828936 -14117.995054 -19873.879160   -117.915053                    
V 31   8514.404446 -23766.119556  12916.911145     -0.021646                    
P 32 -15009.399168 -21121.029202   6347.161422     21.002972                    
V 32   7473.803412   3649.149110  30185.540580     -0.007595                    
EOF
